CCSDS_OEM_VERS = 2.0

COMMENT Orbit data are consistent with planetary ephemeris DE-430

CREATION_DATE  = 2020-06-01T00:27:26
ORIGINATOR     = Test

META_START
OBJECT_NAME          = TEST_OBJ
OBJECT_ID            = 0000-000A
CENTER_NAME          = Earth
REF_FRAME            = ICRF
TIME_SYSTEM          = UTC
START_TIME           = 2020-06-01T12:00:00.000000
USEABLE_START_TIME   = 2020-06-01T12:00:00.000000
USEABLE_STOP_TIME    = 2020-06-01T13:00:00.000000
STOP_TIME            = 2020-06-01T13:00:00.000000
INTERPOLATION        = Lagrange
INTERPOLATION_DEGREE = 5
META_STOP

COMMENT Vehicle's position at any requested time was actually computed using an algorithm, not an interpolation of a table of ephemeris.

2020-06-01T12:00:00.000000   4.200243572628212e+04  -3.700484048865550e+03  -5.884882406018843e+01   2.695321451082662e-01   3.062817188910680e+00  -3.828496759806085e-04
2020-06-01T12:01:00.000000   4.201820541171129e+04  -3.516683057150813e+03  -5.887197476200347e+01   2.561293876496311e-01   3.063968450641196e+00  -3.640290544474632e-04
2020-06-01T12:02:00.000000   4.203317079536672e+04  -3.332814749822908e+03  -5.889399373644027e+01   2.427217099848949e-01   3.065061064127878e+00  -3.452009470051031e-04
2020-06-01T12:03:00.000000   4.204733158973732e+04  -3.148882646358444e+03  -5.891488052879578e+01   2.293093687344608e-01   3.066095008304613e+00  -3.263657153817230e-04
2020-06-01T12:04:00.000000   4.206068752271169e+04  -2.964890267465681e+03  -5.893463470610901e+01   2.158926206094235e-01   3.067070263228033e+00  -3.075237214535250e-04
2020-06-01T12:05:00.000000   4.207323833758340e+04  -2.780841135014743e+03  -5.895325585716829e+01   2.024717224064844e-01   3.067986810077908e+00  -2.886753272401490e-04
2020-06-01T12:06:00.000000   4.208498379305597e+04  -2.596738771972777e+03  -5.897074359252166e+01   1.890469310032268e-01   3.068844631157534e+00  -2.698208948958586e-04
2020-06-01T12:07:00.000000   4.209592366324781e+04  -2.412586702332662e+03  -5.898709754448480e+01   1.756185033529133e-01   3.069643709894074e+00  -2.509607867023992e-04
2020-06-01T12:08:00.000000   4.210605773769644e+04  -2.228388451047830e+03  -5.900231736714850e+01   1.621866964797412e-01   3.070384030838893e+00  -2.320953650632356e-04
2020-06-01T12:09:00.000000   4.211538582136239e+04  -2.044147543967191e+03  -5.901640273638587e+01   1.487517674740950e-01   3.071065579667845e+00  -2.132249924962047e-04
2020-06-01T12:10:00.000000   4.212390773463338e+04  -1.859867507765117e+03  -5.902935334985975e+01   1.353139734874419e-01   3.071688343181577e+00  -1.943500316265909e-04
2020-06-01T12:11:00.000000   4.213162331332771e+04  -1.675551869871253e+03  -5.904116892702955e+01   1.218735717272187e-01   3.072252309305800e+00  -1.754708451790809e-04
2020-06-01T12:12:00.000000   4.213853240869735e+04  -1.491204158408954e+03  -5.905184920915656e+01   1.084308194523393e-01   3.072757467091508e+00  -1.565877959728363e-04
2020-06-01T12:13:00.000000   4.214463488743104e+04  -1.306827902123940e+03  -5.906139395931061e+01   9.498597396799685e-02   3.073203806715219e+00  -1.377012469124457e-04
2020-06-01T12:14:00.000000   4.214993063165675e+04  -1.122426630318927e+03  -5.906980296237429e+01   8.153929262089780e-02   3.073591319479167e+00  -1.188115609831855e-04
2020-06-01T12:15:00.000000   4.215441953894432e+04  -9.380038727785654e+02  -5.907707602504919e+01   6.809103279378799e-02   3.073919997811490e+00  -9.991910124121469e-05
2020-06-01T12:16:00.000000   4.215810152230714e+04  -7.535631597174978e+02  -5.908321297585937e+01   5.464145190166780e-02   3.074189835266365e+00  -8.102423080955475e-05
2020-06-01T12:17:00.000000   4.216097651020415e+04  -5.691080216953442e+02  -5.908821366515576e+01   4.119080738559258e-02   3.074400826524162e+00  -6.212731286896672e-05
2020-06-01T12:18:00.000000   4.216304444654114e+04  -3.846419895623919e+02  -5.909207796511972e+01   2.773935670871461e-02   3.074552967391556e+00  -4.322871065285443e-05
2020-06-01T12:19:00.000000   4.216430529067197e+04  -2.001685943817643e+02  -5.909480576976664e+01   1.428735735060701e-02   3.074646254801617e+00  -2.432878743678879e-05
2020-06-01T12:20:00.000000   4.216475901739954e+04  -1.569136737419563e+01  -5.909639699494819e+01   8.350668032395860e-04   3.074680686813868e+00  -5.427906537239052e-06
2020-06-01T12:21:00.000000   4.216440561697601e+04   1.687861601662330e+02  -5.909685157835488e+01  -1.261725743516759e-02   3.074656262614354e+00   1.347356870173554e-05
2020-06-01T12:22:00.000000   4.216324509510350e+04   3.532604569235884e+02  -5.909616947951839e+01  -2.606935786389621e-02   3.074572982515660e+00   3.237527491009253e-05
2020-06-01T12:23:00.000000   4.216127747293382e+04   5.377279916366238e+02  -5.909435067981275e+01  -3.952097698531131e-02   3.074430847956912e+00   5.127684870241706e-05
2020-06-01T12:24:00.000000   4.215850278706812e+04   7.221852331633718e+02  -5.909139518245541e+01  -5.297185730957069e-02   3.074229861503778e+00   7.017792668332204e-05
2020-06-01T12:25:00.000000   4.215492108955637e+04   9.066286505520327e+02  -5.908730301250836e+01  -6.642174135979376e-02   3.073970026848409e+00   8.907814545435680e-05
2020-06-01T12:26:00.000000   4.215053244789643e+04   1.091054713103786e+03  -5.908207421687778e+01  -7.987037167664157e-02   3.073651348809387e+00   1.079771416223546e-04
2020-06-01T12:27:00.000000   4.214533694503279e+04   1.275459890442179e+03  -5.907570886431466e+01  -9.331749082337590e-02   3.073273833331668e+00   1.268745518039702e-04
2020-06-01T12:28:00.000000   4.213933467935518e+04   1.459840652583400e+03  -5.906820704541405e+01  -1.067628413909825e-01   3.072837487486439e+00   1.457700126345343e-04
2020-06-01T12:29:00.000000   4.213252576469649e+04   1.644193470001878e+03  -5.905956887261321e+01  -1.202061660029575e-01   3.072342319471024e+00   1.646631607754681e-04
2020-06-01T12:30:00.000000   4.212491033033105e+04   1.828514813695309e+03  -5.904979448019154e+01  -1.336472073200444e-01   3.071788338608736e+00   1.835536329193551e-04
2020-06-01T12:31:00.000000   4.211648852097206e+04   2.012801155255613e+03  -5.903888402426831e+01  -1.470857080454123e-01   3.071175555348702e+00   2.024410657980948e-04
2020-06-01T12:32:00.000000   4.210726049676878e+04   2.197048966934997e+03  -5.902683768279947e+01  -1.605214109294710e-01   3.070503981265680e+00   2.213250961903285e-04
2020-06-01T12:33:00.000000   4.209722643330369e+04   2.381254721715034e+03  -5.901365565557705e+01  -1.739540587749096e-01   3.069773629059838e+00   2.402053609268114e-04
2020-06-01T12:34:00.000000   4.208638652158916e+04   2.565414893373409e+03  -5.899933816422343e+01  -1.873833944415621e-01   3.068984512556546e+00   2.590814968997882e-04
2020-06-01T12:35:00.000000   4.207474096806403e+04   2.749525956549185e+03  -5.898388545219078e+01  -2.008091608511689e-01   3.068136646706103e+00   2.779531410671256e-04
2020-06-01T12:36:00.000000   4.206228999458950e+04   2.933584386812198e+03  -5.896729778475490e+01  -2.142311009924357e-01   3.067230047583478e+00   2.968199304614206e-04
2020-06-01T12:37:00.000000   4.204903383844499e+04   3.117586660733029e+03  -5.894957544901157e+01  -2.276489579261366e-01   3.066264732387984e+00   3.156815021964921e-04
2020-06-01T12:38:00.000000   4.203497275232392e+04   3.301529255945450e+03  -5.893071875387219e+01  -2.410624747896699e-01   3.065240719443009e+00   3.345374934739742e-04
2020-06-01T12:39:00.000000   4.202010700432879e+04   3.485408651216174e+03  -5.891072803005872e+01  -2.544713948021414e-01   3.064158028195640e+00   3.533875415899352e-04
2020-06-01T12:40:00.000000   4.200443687796605e+04   3.669221326514133e+03  -5.888960363009723e+01  -2.678754612694199e-01   3.063016679216312e+00   3.722312839431527e-04
2020-06-01T12:41:00.000000   4.198796267214073e+04   3.852963763076563e+03  -5.886734592831204e+01  -2.812744175889546e-01   3.061816694198416e+00   3.910683580413637e-04
2020-06-01T12:42:00.000000   4.197068470115113e+04   4.036632443473677e+03  -5.884395532082046e+01  -2.946680072544929e-01   3.060558095957929e+00   4.098984015075298e-04
2020-06-01T12:43:00.000000   4.195260329468264e+04   4.220223851679209e+03  -5.881943222552537e+01  -3.080559738612256e-01   3.059240908432956e+00   4.287210520875993e-04
2020-06-01T12:44:00.000000   4.193371879780146e+04   4.403734473136326e+03  -5.879377708210655e+01  -3.214380611105928e-01   3.057865156683304e+00   4.475359476579238e-04
2020-06-01T12:45:00.000000   4.191403157094803e+04   4.587160794827647e+03  -5.876699035201592e+01  -3.348140128153915e-01   3.056430866889977e+00   4.663427262306111e-04
2020-06-01T12:46:00.000000   4.189354198993061e+04   4.770499305337007e+03  -5.873907251846594e+01  -3.481835729042799e-01   3.054938066354759e+00   4.851410259625522e-04
2020-06-01T12:47:00.000000   4.187225044591761e+04   4.953746494923251e+03  -5.871002408642345e+01  -3.615464854271601e-01   3.053386783499614e+00   5.039304851613120e-04
2020-06-01T12:48:00.000000   4.185015734543068e+04   5.136898855581328e+03  -5.867984558260132e+01  -3.749024945596335e-01   3.051777047866230e+00   5.227107422910240e-04
2020-06-01T12:49:00.000000   4.182726311033673e+04   5.319952881112667e+03  -5.864853755544678e+01  -3.882513446081350e-01   3.050108890115430e+00   5.414814359813162e-04
2020-06-01T12:50:00.000000   4.180356817783970e+04   5.502905067195037e+03  -5.861610057513422e+01  -4.015927800150272e-01   3.048382342026564e+00   5.602422050326477e-04
2020-06-01T12:51:00.000000   4.177907300047327e+04   5.685751911440457e+03  -5.858253523355079e+01  -4.149265453628255e-01   3.046597436497023e+00   5.789926884254742e-04
2020-06-01T12:52:00.000000   4.175377804609095e+04   5.868489913473321e+03  -5.854784214429240e+01  -4.282523853798950e-01   3.044754207541482e+00   5.977325253237193e-04
2020-06-01T12:53:00.000000   4.172768379785796e+04   6.051115574990979e+03  -5.851202194264643e+01  -4.415700449448711e-01   3.042852690291348e+00   6.164613550849889e-04
2020-06-01T12:54:00.000000   4.170079075424169e+04   6.233625399833781e+03  -5.847507528558298e+01  -4.548792690917677e-01   3.040892920994058e+00   6.351788172661087e-04
2020-06-01T12:55:00.000000   4.167309942900344e+04   6.416015894044621e+03  -5.843700285174497e+01  -4.681798030143219e-01   3.038874937012475e+00   6.538845516291847e-04
2020-06-01T12:56:00.000000   4.164461035118653e+04   6.598283565948414e+03  -5.839780534143041e+01  -4.814713920717895e-01   3.036798776824055e+00   6.725781981511359e-04
2020-06-01T12:57:00.000000   4.161532406510821e+04   6.780424926207381e+03  -5.835748347658608e+01  -4.947537817929794e-01   3.034664480020240e+00   6.912593970274764e-04
2020-06-01T12:58:00.000000   4.158524113034789e+04   6.962436487896638e+03  -5.831603800078998e+01  -5.080267178817659e-01   3.032472087305623e+00   7.099277886815115e-04
2020-06-01T12:59:00.000000   4.155436212173828e+04   7.144314766560402e+03  -5.827346967924105e+01  -5.212899462211917e-01   3.030221640497298e+00   7.285830137697079e-04
2020-06-01T13:00:00.000000   4.152268762935179e+04   7.326056280293878e+03  -5.822977929873841e+01  -5.345432128794397e-01   3.027913182523888e+00   7.472247131914804e-04
